CCSDS_OMM_VERS = 2.0
CREATION_DATE  = 
ORIGINATOR     = 

OBJECT_NAME    = UNKNOWN
OBJECT_ID      = 
CENTER_NAME    = EARTH
REF_FRAME      = TEME
TIME_SYSTEM    = UTC
MEAN_ELEMENT_THEORY = SGP/SGP4

EPOCH          = 2026-02-26T17:29:40.612992
MEAN_MOTION    = 3.20798602
ECCENTRICITY   = .6538504
INCLINATION    = 20.3272
RA_OF_ASC_NODE = 230.1918
ARG_OF_PERICENTER = 143.7924
MEAN_ANOMALY   = 286.5755

EPHEMERIS_TYPE = 0
CLASSIFICATION_TYPE = U
NORAD_CAT_ID   = 84232
ELEMENT_SET_NO = 999
REV_AT_EPOCH   = 10711
BSTAR          = .23359E-1
MEAN_MOTION_DOT = .31444E-3
MEAN_MOTION_DDOT = 0

CCSDS_OMM_VERS = 2.0
CREATION_DATE  = 
ORIGINATOR     = 

OBJECT_NAME    = UNKNOWN
OBJECT_ID      = 
CENTER_NAME    = EARTH
REF_FRAME      = TEME
TIME_SYSTEM    = UTC
MEAN_ELEMENT_THEORY = SGP/SGP4

EPOCH          = 2026-02-22T21:05:42.732384
MEAN_MOTION    = 2.62640383
ECCENTRICITY   = .6890481
INCLINATION    = 9.3286
RA_OF_ASC_NODE = 303.0215
ARG_OF_PERICENTER = 157.9709
MEAN_ANOMALY   = 258.5396

EPHEMERIS_TYPE = 0
CLASSIFICATION_TYPE = U
NORAD_CAT_ID   = 84236
ELEMENT_SET_NO = 999
REV_AT_EPOCH   = 11587
BSTAR          = .45444E-2
MEAN_MOTION_DOT = .675E-5
MEAN_MOTION_DDOT = 0

CCSDS_OMM_VERS = 2.0
CREATION_DATE  = 
ORIGINATOR     = 

OBJECT_NAME    = UNKNOWN
OBJECT_ID      = 
CENTER_NAME    = EARTH
REF_FRAME      = TEME
TIME_SYSTEM    = UTC
MEAN_ELEMENT_THEORY = SGP/SGP4

EPOCH          = 2026-02-27T00:38:36.021984
MEAN_MOTION    = 6.22174459
ECCENTRICITY   = .4554882
INCLINATION    = 23.8329
RA_OF_ASC_NODE = 54.6272
ARG_OF_PERICENTER = 63.8513
MEAN_ANOMALY   = 335.7059

EPHEMERIS_TYPE = 0
CLASSIFICATION_TYPE = U
NORAD_CAT_ID   = 84292
ELEMENT_SET_NO = 999
REV_AT_EPOCH   = 23281
BSTAR          = .24768E-2
MEAN_MOTION_DOT = .4046E-4
MEAN_MOTION_DDOT = 0

CCSDS_OMM_VERS = 2.0
CREATION_DATE  = 
ORIGINATOR     = 

OBJECT_NAME    = UNKNOWN
OBJECT_ID      = 
CENTER_NAME    = EARTH
REF_FRAME      = TEME
TIME_SYSTEM    = UTC
MEAN_ELEMENT_THEORY = SGP/SGP4

EPOCH          = 2026-02-27T05:14:06.033696
MEAN_MOTION    = 2.05796928
ECCENTRICITY   = .7208492
INCLINATION    = 19.4512
RA_OF_ASC_NODE = 300.0109
ARG_OF_PERICENTER = 102.8288
MEAN_ANOMALY   = 339.5385

EPHEMERIS_TYPE = 0
CLASSIFICATION_TYPE = U
NORAD_CAT_ID   = 84407
ELEMENT_SET_NO = 999
REV_AT_EPOCH   = 7744
BSTAR          = .15745E-1
MEAN_MOTION_DOT = -.62E-6
MEAN_MOTION_DDOT = 0

CCSDS_OMM_VERS = 2.0
CREATION_DATE  = 
ORIGINATOR     = 

OBJECT_NAME    = UNKNOWN
OBJECT_ID      = 
CENTER_NAME    = EARTH
REF_FRAME      = TEME
TIME_SYSTEM    = UTC
MEAN_ELEMENT_THEORY = SGP/SGP4

EPOCH          = 2026-02-22T16:43:29.797824
MEAN_MOTION    = 2.19869117
ECCENTRICITY   = .7113236
INCLINATION    = 18.0140
RA_OF_ASC_NODE = 134.5257
ARG_OF_PERICENTER = 66.3817
MEAN_ANOMALY   = 350.2439

EPHEMERIS_TYPE = 0
CLASSIFICATION_TYPE = U
NORAD_CAT_ID   = 84575
ELEMENT_SET_NO = 999
REV_AT_EPOCH   = 6704
BSTAR          = -.66146E-2
MEAN_MOTION_DOT = -.178E-5
MEAN_MOTION_DDOT = 0

CCSDS_OMM_VERS = 2.0
CREATION_DATE  = 
ORIGINATOR     = 

OBJECT_NAME    = UNKNOWN
OBJECT_ID      = 
CENTER_NAME    = EARTH
REF_FRAME      = TEME
TIME_SYSTEM    = UTC
MEAN_ELEMENT_THEORY = SGP/SGP4

EPOCH          = 2026-02-27T13:15:07.195968
MEAN_MOTION    = 3.00120380
ECCENTRICITY   = .6576876
INCLINATION    = 2.0441
RA_OF_ASC_NODE = 197.6254
ARG_OF_PERICENTER = 143.3927
MEAN_ANOMALY   = 130.7304

EPHEMERIS_TYPE = 0
CLASSIFICATION_TYPE = U
NORAD_CAT_ID   = 84932
ELEMENT_SET_NO = 999
REV_AT_EPOCH   = 13408
BSTAR          = .67881E-2
MEAN_MOTION_DOT = .755E-5
MEAN_MOTION_DDOT = 0

CCSDS_OMM_VERS = 2.0
CREATION_DATE  = 
ORIGINATOR     = 

OBJECT_NAME    = UNKNOWN
OBJECT_ID      = 
CENTER_NAME    = EARTH
REF_FRAME      = TEME
TIME_SYSTEM    = UTC
MEAN_ELEMENT_THEORY = SGP/SGP4

EPOCH          = 2026-02-27T04:49:42.364992
MEAN_MOTION    = 14.41322088
ECCENTRICITY   = .0045749
INCLINATION    = 98.4323
RA_OF_ASC_NODE = 33.1570
ARG_OF_PERICENTER = 293.5143
MEAN_ANOMALY   = 80.8552

EPHEMERIS_TYPE = 0
CLASSIFICATION_TYPE = U
NORAD_CAT_ID   = 85004
ELEMENT_SET_NO = 999
REV_AT_EPOCH   = 64191
BSTAR          = .37313E-3
MEAN_MOTION_DOT = .1178E-4
MEAN_MOTION_DDOT = 0

CCSDS_OMM_VERS = 2.0
CREATION_DATE  = 
ORIGINATOR     = 

OBJECT_NAME    = UNKNOWN
OBJECT_ID      = 
CENTER_NAME    = EARTH
REF_FRAME      = TEME
TIME_SYSTEM    = UTC
MEAN_ELEMENT_THEORY = SGP/SGP4

EPOCH          = 2026-02-27T02:23:30.679296
MEAN_MOTION    = 13.75239596
ECCENTRICITY   = .0026672
INCLINATION    = 99.2482
RA_OF_ASC_NODE = 282.6795
ARG_OF_PERICENTER = 51.5718
MEAN_ANOMALY   = 101.6401

EPHEMERIS_TYPE = 0
CLASSIFICATION_TYPE = U
NORAD_CAT_ID   = 85010
ELEMENT_SET_NO = 999
REV_AT_EPOCH   = 61441
BSTAR          = .10809E-2
MEAN_MOTION_DOT = .996E-5
MEAN_MOTION_DDOT = 0

CCSDS_OMM_VERS = 2.0
CREATION_DATE  = 
ORIGINATOR     = 

OBJECT_NAME    = UNKNOWN
OBJECT_ID      = 
CENTER_NAME    = EARTH
REF_FRAME      = TEME
TIME_SYSTEM    = UTC
MEAN_ELEMENT_THEORY = SGP/SGP4

EPOCH          = 2026-02-12T08:13:57.880992
MEAN_MOTION    = 14.62384300
ECCENTRICITY   = .0014966
INCLINATION    = 74.0504
RA_OF_ASC_NODE = 280.3183
ARG_OF_PERICENTER = 175.2991
MEAN_ANOMALY   = 184.8320

EPHEMERIS_TYPE = 0
CLASSIFICATION_TYPE = U
NORAD_CAT_ID   = 85015
ELEMENT_SET_NO = 999
REV_AT_EPOCH   = 65161
BSTAR          = .10722E-3
MEAN_MOTION_DOT = .513E-5
MEAN_MOTION_DDOT = 0

CCSDS_OMM_VERS = 2.0
CREATION_DATE  = 
ORIGINATOR     = 

OBJECT_NAME    = UNKNOWN
OBJECT_ID      = 
CENTER_NAME    = EARTH
REF_FRAME      = TEME
TIME_SYSTEM    = UTC
MEAN_ELEMENT_THEORY = SGP/SGP4

EPOCH          = 2026-02-27T14:06:29.528928
MEAN_MOTION    = 14.79496310
ECCENTRICITY   = .0002925
INCLINATION    = 99.8434
RA_OF_ASC_NODE = 95.8626
ARG_OF_PERICENTER = 117.9335
MEAN_ANOMALY   = 35.1086

EPHEMERIS_TYPE = 0
CLASSIFICATION_TYPE = U
NORAD_CAT_ID   = 85023
ELEMENT_SET_NO = 999
REV_AT_EPOCH   = 64017
BSTAR          = .32719E-2
MEAN_MOTION_DOT = .24475E-3
MEAN_MOTION_DDOT = 0

CCSDS_OMM_VERS = 2.0
CREATION_DATE  = 
ORIGINATOR     = 

OBJECT_NAME    = UNKNOWN
OBJECT_ID      = 
CENTER_NAME    = EARTH
REF_FRAME      = TEME
TIME_SYSTEM    = UTC
MEAN_ELEMENT_THEORY = SGP/SGP4

EPOCH          = 2026-02-26T23:49:46.197120
MEAN_MOTION    = 13.74279270
ECCENTRICITY   = .0170927
INCLINATION    = 66.0399
RA_OF_ASC_NODE = 274.7790
ARG_OF_PERICENTER = 149.7003
MEAN_ANOMALY   = 211.4080

EPHEMERIS_TYPE = 0
CLASSIFICATION_TYPE = U
NORAD_CAT_ID   = 85027
ELEMENT_SET_NO = 999
REV_AT_EPOCH   = 61509
BSTAR          = .21454E-3
MEAN_MOTION_DOT = .146E-5
MEAN_MOTION_DDOT = 0

CCSDS_OMM_VERS = 2.0
CREATION_DATE  = 
ORIGINATOR     = 

OBJECT_NAME    = UNKNOWN
OBJECT_ID      = 
CENTER_NAME    = EARTH
REF_FRAME      = TEME
TIME_SYSTEM    = UTC
MEAN_ELEMENT_THEORY = SGP/SGP4

EPOCH          = 2026-02-26T09:57:36.017280
MEAN_MOTION    = 13.46399557
ECCENTRICITY   = .0109263
INCLINATION    = 102.1679
RA_OF_ASC_NODE = 43.7199
ARG_OF_PERICENTER = 215.3592
MEAN_ANOMALY   = 144.0250

EPHEMERIS_TYPE = 0
CLASSIFICATION_TYPE = U
NORAD_CAT_ID   = 85047
ELEMENT_SET_NO = 999
REV_AT_EPOCH   = 58683
BSTAR          = .17311E-1
MEAN_MOTION_DOT = .10745E-3
MEAN_MOTION_DDOT = 0

