UNKNOWN                 
1 84232U          26057.72894228  .00031444  00000+0  23359-1 0  9999
2 84232  20.3272 230.1918 6538504 143.7924 286.5755  3.20798602107117
UNKNOWN                 
1 84236U          26053.87896681  .00000675  00000+0  45444-2 0  9992
2 84236   9.3286 303.0215 6890481 157.9709 258.5396  2.62640383115875
UNKNOWN                 
1 84292U          26058.02680581  .00004046  00000+0  24768-2 0  9998
2 84292  23.8329  54.6272 4554882  63.8513 335.7059  6.22174459232810
UNKNOWN                 
1 84407U          26058.21812539 -.00000062  00000+0  15745-1 0  9996
2 84407  19.4512 300.0109 7208492 102.8288 339.5385  2.05796928 77447
UNKNOWN                 
1 84575U          26053.69687266 -.00000178  00000+0 -66146-2 0  9997
2 84575  18.0140 134.5257 7113236  66.3817 350.2439  2.19869117 67043
UNKNOWN                 
1 84932U          26058.55216662  .00000755  00000+0  67881-2 0  9998
2 84932   2.0441 197.6254 6576876 143.3927 130.7304  3.00120380134088
UNKNOWN                 
1 85004U          26058.20118478  .00001178  00000+0  37313-3 0  9995
2 85004  98.4323  33.1570 0045749 293.5143  80.8552 14.41322088641915
UNKNOWN                 
1 85010U          26058.09966064  .00000996  00000+0  10809-2 0  9998
2 85010  99.2482 282.6795 0026672  51.5718 101.6401 13.75239596614418
UNKNOWN                 
1 85015U          26043.34303103  .00000513  00000+0  10722-3 0  9994
2 85015  74.0504 280.3183 0014966 175.2991 184.8320 14.62384300651612
UNKNOWN                 
1 85023U          26058.58784177  .00024475  00000+0  32719-2 0  9991
2 85023  99.8434  95.8626 0002925 117.9335  35.1086 14.79496310640175
UNKNOWN                 
1 85027U          26057.99289580  .00000146  00000+0  21454-3 0  9991
2 85027  66.0399 274.7790 0170927 149.7003 211.4080 13.74279270615092
UNKNOWN                 
1 85047U          26057.41500020  .00010745  00000+0  17311-1 0  9996
2 85047 102.1679  43.7199 0109263 215.3592 144.0250 13.46399557586831
